#aV2006  5 23  0  0   .00000000      96 DD+AD WGS84 FIT  NGA
## 1376 172800.00000000   900.00000000 53878  .0000000000000
+   29     1  2  3  4  5  6  7  8  9 10 11 13 14 15 16 17 18
+         19 20 21 22 23 24 25 26 27 28 29 30  0  0  0  0  0
+          0  0  0  0  0  0  0  0  0  0  0  0  0  0  0  0  0
+          0  0  0  0  0  0  0  0  0  0  0  0  0  0  0  0  0
+          0  0  0  0  0  0  0  0  0  0  0  0  0  0  0  0  0
++         0  0  0  0  0  0  0  0  0  0  0  0  0  0  0  0  0
++         0  0  0  0  0  0  0  0  0  0  0  0  0  0  0  0  0
++         0  0  0  0  0  0  0  0  0  0  0  0  0  0  0  0  0
++         0  0  0  0  0  0  0  0  0  0  0  0  0  0  0  0  0
++         0  0  0  0  0  0  0  0  0  0  0  0  0  0  0  0  0
%c cc cc ccc ccc cccc cccc cccc cccc ccccc ccccc ccccc ccccc
%c cc cc ccc ccc cccc cccc cccc cccc ccccc ccccc ccccc ccccc
%f  0.0000000  0.000000000  0.00000000000  0.000000000000000
%f  0.0000000  0.000000000  0.00000000000  0.000000000000000
%i    0    0    0    0      0      0      0      0         0
%i    0    0    0    0      0      0      0      0         0
/*      NGA, ST. LOUIS,MO.                                  
/*   EPHEMERIS COMPUTED FROM  3 DAYS OF DATA                
/* CCCCCCCCCCCCCCCCCCCCCCCCCCCCCCCCCCCCCCCCCCCCCCCCCCCCCCCCC
/* CCCCCCCCCCCCCCCCCCCCCCCCCCCCCCCCCCCCCCCCCCCCCCCCCCCCCCCCC
*  2006  5 23 13  0   .00000000                                                 
P  1 -15505.221982  21409.991300   2492.529976     54.677802                    
V  1  -3377.826111   1003.727288 -32171.420993       .024942                    
P  2  10849.443115 -13107.911471  20081.598876      -.729395                    
V  2  25820.456688   4460.286785 -11101.166291       .028087                    
P  3  -9797.843742  23864.232249  -5762.495917    100.912149                    
V  3  -7210.946307   4004.252783  29993.823861       .031300                    
P  4  21502.867513  -7101.738891  14116.969013    236.948408                    
V  4  17387.501840   4694.197794 -23713.534686       .090932                    
P  5 -13300.594374 -23026.820853   1586.580017     33.235235                    
V  5   1987.814912  -3566.251082 -31036.243590       .511868                    
P  6 -15146.821599  -5800.397799  21237.527483    536.536927                    
V  6  14984.152040 -21995.574727   4647.294833       .159540                    
P  7 -19437.910430  15105.961399  10484.001245    538.593282                    
V  7   4669.905816 -12309.354090  27150.914159       .021118                    
P  8  25763.114498   -759.499565  -7379.703697    -66.632055                    
V  8   8618.465777   3413.797614  29930.522867      -.011629                    
P  9 -11599.353527 -14694.742349 -19496.002897     21.399508                    
V  9  23506.820308   1004.911398 -14895.252141       .015442                    
P 10   1106.943833 -22522.190008  13682.947005     83.882353                    
V 10   8454.774422  15623.001686  25155.868460       .006008                    
P 11  14009.229254  13971.840080 -17890.216624    328.894722                    
V 11 -22697.762233   2769.644902 -15418.958257       .024706                    
P 13  14099.156600   5182.285984  21808.100416     63.944785                    
V 13 -17096.662946  21957.622326   5866.745588       .028019                    
P 14 -19928.450469  12925.334639 -11766.333246    -13.461086                    
V 14   7842.153579 -12931.478287 -27385.806194       .007857                    
P 15 -25732.298977    197.793716  -7543.395319    617.139568                    
V 15  -8605.527202  -4192.904758  29472.481870       .060031                    
P 16  -5472.464400  19110.318346  17651.610203     44.664946                    
V 16  -9999.190244 -19977.627416  18726.244447       .025094                    
P 17  20097.636089 -11803.210779 -12655.760257     94.467232                    
V 17  -7851.407256  14248.624802 -25867.689243       .027295                    
P 18 -16983.751126 -11320.379754 -17058.219970   -236.455697                    
V 18  -5994.117366 -20965.444258  19464.002899      -.015541                    
P 19  -2771.518560  20732.328995 -16231.985789     -9.372599                    
V 19 -15081.675175  14518.395420  21024.008672       .020030                    
P 20  13276.392018  22532.941240   4636.931069    -26.466005                    
V 20   -240.874918   6641.876214 -30925.111551       .006007                    
P 21 -26251.164089  -5461.328312   1550.575105     30.643016                    
V 21   2318.742201  -2544.519661  30944.219992       .026482                    
P 22 -14793.327670   3919.015916 -21556.820520     98.951288                    
V 22  -9275.732591 -26157.688136   1588.155786       .040233                    
P 23   5846.396212  15647.918840  20516.562476    140.951120                    
V 23 -16638.333156  20371.254831 -10901.102623      -.007417                    
P 24  26225.164967   1016.242019   5158.232700      8.073397                    
V 24   5671.112069   3557.057008 -30680.135990       .028306                    
P 25 -16894.617225  11710.434300  17293.578571    118.606565                    
V 25 -21090.371945  -2360.116261 -19326.359740       .892619                    
P 26   4655.791065 -21448.147130 -14903.113368   -123.853237                    
V 26  12824.919225 -13334.435752  24396.672636      -.116356                    
P 27  26152.444382   4457.753073   3930.086987     50.069767                    
V 27  -4359.852485   2234.199947  30984.162916       .017511                    
P 28  16000.000636    497.031198 -20960.806459     26.845654                    
V 28   9559.093232  25503.108156   7456.083187      -.008160                    
P 29   7818.718865 -22618.045701 -10978.647478    609.219979                    
V 29  10179.342675 -10317.524390  28184.887127       .060012                    
P 30 -17137.575204 -16164.328997  12102.926802    258.055058                    
V 30  -4134.105346 -15493.644642 -25831.954154       .183309                    
EOF
